{
  "type": "FeatureCollection",
  "features": [
    {
      "type": "Feature",
      "properties": {
        "norad_id": 37280,
        "name": "COSMOS 2251 DEB",
        "group": "cosmos-2251-debris",
        "lat": 35.257075169263466,
        "lon": -134.01819244228847,
        "alt_km": 755.5881154336112,
        "timestamp": "2025-12-12T09:49:09.129652+00:00",
        "meta_object_name": "COSMOS 2251 DEB",
        "meta_object_id": "1993-036BHU",
        "meta_epoch": "2025-12-11T21:18:02.152224",
        "meta_mean_motion": 14.19307625,
        "meta_eccentricity": 0.0131129,
        "meta_inclination": 74.0314,
        "meta_ra_of_asc_node": 58.592,
        "meta_arg_of_pericenter": 187.3743,
        "meta_mean_anomaly": 172.5477,
        "meta_ephemeris_type": 0,
        "meta_classification_type": "U",
        "meta_norad_cat_id": 37280,
        "meta_element_set_no": 999,
        "meta_rev_at_epoch": 57311,
        "meta_bstar": 0.0026008,
        "meta_mean_motion_dot": 5.928e-05,
        "meta_mean_motion_ddot": 0,
        "tle_line1": "1 37280U 93036BHU 25345.88752491  .00005928  00000+0  26008-2 0  9995",
        "tle_line2": "2 37280  74.0314  58.5920 0131129 187.3743 172.5477 14.19307625573118"
      },
      "geometry": {
        "type": "Point",
        "coordinates": [
          -134.01819244228847,
          35.257075169263466
        ]
      }
    },
    {
      "type": "Feature",
      "properties": {
        "norad_id": 37284,
        "name": "COSMOS 2251 DEB",
        "group": "cosmos-2251-debris",
        "lat": 27.80882870990032,
        "lon": -31.385755007042864,
        "alt_km": 956.1317633536692,
        "timestamp": "2025-12-12T09:49:09.129662+00:00",
        "meta_object_name": "COSMOS 2251 DEB",
        "meta_object_id": "1993-036BHY",
        "meta_epoch": "2025-12-10T18:04:20.469216",
        "meta_mean_motion": 14.12686618,
        "meta_eccentricity": 0.01605026,
        "meta_inclination": 74.0123,
        "meta_ra_of_asc_node": 160.2425,
        "meta_arg_of_pericenter": 312.4867,
        "meta_mean_anomaly": 59.8736,
        "meta_ephemeris_type": 0,
        "meta_classification_type": "U",
        "meta_norad_cat_id": 37284,
        "meta_element_set_no": 999,
        "meta_rev_at_epoch": 59147,
        "meta_bstar": 0.001592138,
        "meta_mean_motion_dot": 3.31e-05,
        "meta_mean_motion_ddot": 0,
        "tle_line1": "1 37284U 93036BHY 25344.75301469  .00003310  00000+0  15921-2 0  9994",
        "tle_line2": "2 37284  74.0123 160.2425 0160502 312.4867  59.8736 14.12686618591475"
      },
      "geometry": {
        "type": "Point",
        "coordinates": [
          -31.385755007042864,
          27.80882870990032
        ]
      }
    },
    {
      "type": "Feature",
      "properties": {
        "norad_id": 37292,
        "name": "COSMOS 2251 DEB",
        "group": "cosmos-2251-debris",
        "lat": -69.6638219885267,
        "lon": 0.20842487285042893,
        "alt_km": 986.961767331979,
        "timestamp": "2025-12-12T09:49:09.129673+00:00",
        "meta_object_name": "COSMOS 2251 DEB",
        "meta_object_id": "1993-036BJG",
        "meta_epoch": "2025-12-02T14:04:30.366912",
        "meta_mean_motion": 14.03226454,
        "meta_eccentricity": 0.02102512,
        "meta_inclination": 74.129,
        "meta_ra_of_asc_node": 67.3453,
        "meta_arg_of_pericenter": 73.1105,
        "meta_mean_anomaly": 289.2966,
        "meta_ephemeris_type": 0,
        "meta_classification_type": "U",
        "meta_norad_cat_id": 37292,
        "meta_element_set_no": 999,
        "meta_rev_at_epoch": 59706,
        "meta_bstar": 0.0022453288,
        "meta_mean_motion_dot": 4.236e-05,
        "meta_mean_motion_ddot": 0,
        "tle_line1": "1 37292U 93036BJG 25336.58646258  .00004236  00000+0  22453-2 0  9999",
        "tle_line2": "2 37292  74.1290  67.3453 0210251  73.1105 289.2966 14.03226454597064"
      },
      "geometry": {
        "type": "Point",
        "coordinates": [
          0.20842487285042893,
          -69.6638219885267
        ]
      }
    },
    {
      "type": "Feature",
      "properties": {
        "norad_id": 37295,
        "name": "COSMOS 2251 DEB",
        "group": "cosmos-2251-debris",
        "lat": 51.06207719954895,
        "lon": 81.47164810745656,
        "alt_km": 643.0657517158579,
        "timestamp": "2025-12-12T09:49:09.129683+00:00",
        "meta_object_name": "COSMOS 2251 DEB",
        "meta_object_id": "1993-036BJK",
        "meta_epoch": "2025-12-10T06:27:05.450112",
        "meta_mean_motion": 14.65213033,
        "meta_eccentricity": 0.0043773,
        "meta_inclination": 74.0068,
        "meta_ra_of_asc_node": 286.3868,
        "meta_arg_of_pericenter": 106.4238,
        "meta_mean_anomaly": 254.1748,
        "meta_ephemeris_type": 0,
        "meta_classification_type": "U",
        "meta_norad_cat_id": 37295,
        "meta_element_set_no": 999,
        "meta_rev_at_epoch": 82268,
        "meta_bstar": 0.00088834,
        "meta_mean_motion_dot": 4.823e-05,
        "meta_mean_motion_ddot": 0,
        "tle_line1": "1 37295U 93036BJK 25344.26881308  .00004823  00000+0  88834-3 0  9991",
        "tle_line2": "2 37295  74.0068 286.3868 0043773 106.4238 254.1748 14.65213033822687"
      },
      "geometry": {
        "type": "Point",
        "coordinates": [
          81.47164810745656,
          51.06207719954895
        ]
      }
    },
    {
      "type": "Feature",
      "properties": {
        "norad_id": 37305,
        "name": "COSMOS 2251 DEB",
        "group": "cosmos-2251-debris",
        "lat": -54.0390142516677,
        "lon": -92.3771018658932,
        "alt_km": 755.2788843493117,
        "timestamp": "2025-12-12T09:49:09.129693+00:00",
        "meta_object_name": "COSMOS 2251 DEB",
        "meta_object_id": "1993-036BJV",
        "meta_epoch": "2025-12-10T14:37:05.458080",
        "meta_mean_motion": 14.36123744,
        "meta_eccentricity": 0.005028,
        "meta_inclination": 73.8703,
        "meta_ra_of_asc_node": 294.4681,
        "meta_arg_of_pericenter": 255.1941,
        "meta_mean_anomaly": 104.3638,
        "meta_ephemeris_type": 0,
        "meta_classification_type": "U",
        "meta_norad_cat_id": 37305,
        "meta_element_set_no": 999,
        "meta_rev_at_epoch": 66836,
        "meta_bstar": 0.0011247,
        "meta_mean_motion_dot": 3.297e-05,
        "meta_mean_motion_ddot": 0,
        "tle_line1": "1 37305U 93036BJV 25344.60909095  .00003297  00000+0  11247-2 0  9992",
        "tle_line2": "2 37305  73.8703 294.4681 0050280 255.1941 104.3638 14.36123744668363"
      },
      "geometry": {
        "type": "Point",
        "coordinates": [
          -92.3771018658932,
          -54.0390142516677
        ]
      }
    },
    {
      "type": "Feature",
      "properties": {
        "norad_id": 37312,
        "name": "COSMOS 2251 DEB",
        "group": "cosmos-2251-debris",
        "lat": -26.059879567133688,
        "lon": -163.24979441402377,
        "alt_km": 731.8945397290126,
        "timestamp": "2025-12-12T09:49:09.129704+00:00",
        "meta_object_name": "COSMOS 2251 DEB",
        "meta_object_id": "1993-036BKC",
        "meta_epoch": "2025-12-09T00:35:23.995392",
        "meta_mean_motion": 14.46107555,
        "meta_eccentricity": 0.00182852,
        "meta_inclination": 74.0311,
        "meta_ra_of_asc_node": 211.115,
        "meta_arg_of_pericenter": 314.7028,
        "meta_mean_anomaly": 45.264,
        "meta_ephemeris_type": 0,
        "meta_classification_type": "U",
        "meta_norad_cat_id": 37312,
        "meta_element_set_no": 999,
        "meta_rev_at_epoch": 86110,
        "meta_bstar": 0.00057614872,
        "meta_mean_motion_dot": 2.035e-05,
        "meta_mean_motion_ddot": 0,
        "tle_line1": "1 37312U 93036BKC 25343.02458328  .00002035  00000+0  57615-3 0  9992",
        "tle_line2": "2 37312  74.0311 211.1150 0018285 314.7028  45.2640 14.46107555861109"
      },
      "geometry": {
        "type": "Point",
        "coordinates": [
          -163.24979441402377,
          -26.059879567133688
        ]
      }
    },
    {
      "type": "Feature",
      "properties": {
        "norad_id": 37316,
        "name": "COSMOS 2251 DEB",
        "group": "cosmos-2251-debris",
        "lat": 61.47052055248941,
        "lon": 169.92606626483482,
        "alt_km": 558.9264402719082,
        "timestamp": "2025-12-12T09:49:09.129714+00:00",
        "meta_object_name": "COSMOS 2251 DEB",
        "meta_object_id": "1993-036BKG",
        "meta_epoch": "2025-12-10T20:21:36.803232",
        "meta_mean_motion": 14.94359882,
        "meta_eccentricity": 0.0029452,
        "meta_inclination": 74.02,
        "meta_ra_of_asc_node": 24.8845,
        "meta_arg_of_pericenter": 93.8539,
        "meta_mean_anomaly": 266.6013,
        "meta_ephemeris_type": 0,
        "meta_classification_type": "U",
        "meta_norad_cat_id": 37316,
        "meta_element_set_no": 999,
        "meta_rev_at_epoch": 86115,
        "meta_bstar": 0.0030338,
        "meta_mean_motion_dot": 0.00033042,
        "meta_mean_motion_ddot": 0,
        "tle_line1": "1 37316U 93036BKG 25344.84834263  .00033042  00000+0  30338-2 0  9997",
        "tle_line2": "2 37316  74.0200  24.8845 0029452  93.8539 266.6013 14.94359882861153"
      },
      "geometry": {
        "type": "Point",
        "coordinates": [
          169.92606626483482,
          61.47052055248941
        ]
      }
    }
  ]
}